CAS-2T & KS-1Q          
1 41847U 16066G   23031.16300196  .00001352  00000+0  21264-3 0  9996
2 41847  98.5230 100.3141 0361007 248.2576 107.9828 14.39091611327095
NAYIF-1 (EO-88)         
1 42017U 17008BX  23031.17991988  .00038199  00000+0  76476-3 0  9993
2 42017  97.2385 100.0770 0003688 138.4338 221.7192 15.46651892332100
ZHUHAI-1 02 (CAS-4B)    
1 42759U 17034B   23031.22435536  .00008161  00000+0  44922-3 0  9990
2 42759  43.0162 155.3985 0011806 295.5036 137.0200 15.14286043310851
ZHUHAI-1 01 (CAS-4A)    
1 42761U 17034D   23031.09949074  .00008802  00000+0  48145-3 0  9998
2 42761  43.0162 154.7033 0012248 296.5199  54.8636 15.14434863310835
MAX VALIER SAT          
1 42778U 17036P   23031.05846037  .00011332  00000+0  36565-3 0  9994
2 42778  97.1784  69.6193 0008205 227.8313 132.2233 15.32266843311686
RADFXSAT (FOX-1B)       
1 43017U 17073E   23031.12998204  .00003685  00000+0  26984-3 0  9990
2 43017  97.6505 280.9442 0241719 160.6293 200.4308 14.83642939280847
FOX-1D (AO-92)          
1 43137U 18004AC  23031.19166560  .00018349  00000+0  52645-3 0  9993
2 43137  97.3452 109.8377 0005981 274.6566  85.3994 15.35904665281209
DIWATA-2B               
1 43678U 18084H   23031.14339119  .00002119  00000+0  21092-3 0  9998
2 43678  97.9979 172.6053 0008489 252.1831 107.8448 14.92732635231814
ES'HAIL 2               
1 43700U 18090A   23030.85292463  .00000147  00000+0  00000+0 0  9999
2 43700   0.0170  84.2760 0002328 260.3635 117.9749  1.00272264 15313
FOX-1CLIFF (AO-95)      
1 43770U 18099N   23030.91403042  .00003753  00000+0  32270-3 0  9993
2 43770  97.5925  96.1866 0012837 227.6133 132.4004 14.97939291227044
ITASAT 1                
1 43786U 18099AE  23030.89742139  .00002834  00000+0  24518-3 0  9995
2 43786  97.5956  97.1933 0013727 223.2253 136.7894 14.97884610227087
JY1SAT (JO-97)          
1 43803U 18099AX  23030.81910366  .00003162  00000+0  26707-3 0  9993
2 43803  97.5934  96.9810 0012995 221.8252 138.1979 14.98740556227107
UWE-4                   
1 43880U 18111E   23030.98070163  .00003731  00000+0  30451-3 0  9996
2 43880  97.6566 298.3597 0011822 280.7740  79.2152 14.99982142221784
NEXUS (FO-99)           
1 43937U 19003F   23031.04525704  .00022816  00000+0  59299-3 0  9990
2 43937  97.1076  61.2289 0018657  60.2672 300.0427 15.38763706224860
PSAT2 (NO-104)          
1 44354U 19036R   23031.11663461  .00456405  76384-4  72502-3 0  9991
2 44354  28.5151 356.5560 0067627  91.1264 269.7099 15.98018575200211
JAISAT-1                
1 44419U 19038F   23030.90961266  .00013888  00000+0  59762-3 0  9999
2 44419  97.6627   8.9363 0019611  68.2307 292.1013 15.22569164197594
DUCHIFAT-3              
1 44854U 19089C   23031.16374718  .00008450  00000+0  61482-3 0  9998
2 44854  36.9635 188.5284 0008318 285.3582 243.7609 15.03360243172185
CAS-6 (TIANQIN 1)       
1 44881U 19093C   23030.99731300  .00001329  00000+0  17344-3 0  9993
2 44881  97.8740 111.7574 0015241 160.4655 199.7114 14.82094580168477
RS-44 & BREEZE-KM R/B   
1 44909U 19096E   23030.85750866  .00000004  00000+0 -36123-4 0  9997
2 44909  82.5187  79.2014 0218131 147.8282 213.6347 12.79717967144595
ORBITAL FACTORY 2 (OF-2)
1 45113U 19071C   23030.36549020  .00122551  00000+0  98217-3 0  9994
2 45113  51.6313   8.9437 0002601 342.5259  17.5648 15.70140250168657
HUSKYSAT-1 (HO-107)     
1 45119U 19071J   23030.50313761  .00082197  00000+0  83996-3 0  9996
2 45119  51.6330  12.0869 0003316 315.1374  44.9352 15.64316861168613
BY70-2                  
1 45857U 20042B   23031.18254787  .00013139  00000+0  15783-2 0  9990
2 45857  97.9372 111.1966 0010083  98.6546 261.5712 14.84071484139179
SALSAT                  
1 46495U 20068K   23030.47025521  .00004229  00000+0  29433-3 0  9998
2 46495  97.7545 337.3263 0014936 223.7536 136.2508 15.05944067128338
BY70-3                  
1 46839U 20079N   23031.26473034  .00091181  00000+0  10636-2 0  9993
2 46839  97.1694 107.2382 0003853 228.8331 204.1085 15.61338616125500
RADFXSAT-2 (AO-109)     
1 47311U 21002C   23031.07247391  .00014841  00000+0  49323-3 0  9994
2 47311  60.6816 222.5373 0036936 106.7086 253.8064 15.30809319113242
UVSQ-SAT                
1 47438U 21006AB  23031.08760354  .00008648  00000+0  41115-3 0  9997
2 47438  97.4079  90.4921 0010452 196.8882 163.2006 15.19388289111794
DIY-1 (ARDUIQUBE)       
1 47963U 21022AH  23030.19089687  .00039907  00000+0  15602-2 0  9995
2 47963  97.5149 295.1292 0016744  72.2522 288.0541 15.25611377101343
XW-3 (CAS-9)            
1 50466U 21131B   23031.24075078  .00000347  00000+0  12787-3 0  9992
2 50466  98.5626 113.1938 0004825 178.1525 181.9681 14.38650528 57663
TEVEL-3                 
1 50988U 22002E   23031.25673775  .00015323  00000+0  73728-3 0  9990
2 50988  97.4539  99.6405 0008583 359.5532  70.8401 15.18841221 57935
TEVEL-8                 
1 50989U 22002F   23031.00898468  .00015382  00000+0  74140-3 0  9996
2 50989  97.4555  99.4375 0009021 358.2443  85.9833 15.18775923 57899
TEVEL-5                 
1 50998U 22002Q   23031.25984471  .00015734  00000+0  74363-3 0  9991
2 50998  97.4534  99.8875 0010290 352.7548  47.9928 15.19440850 57959
TEVEL-6                 
1 50999U 22002R   23031.25867674  .00015687  00000+0  74135-3 0  9991
2 50999  97.4530  99.8834 0010242 352.2039  48.5328 15.19446650 57953
TEVEL-1                 
1 51013U 22002AF  23031.25790221  .00015360  00000+0  73966-3 0  9991
2 51013  97.4532  99.5995 0008729 357.5226  44.4766 15.18811165 57936
TEVEL-7                 
1 51062U 22002CG  23031.27248235  .00015339  00000+0  73910-3 0  9995
2 51062  97.4544  99.6741 0009017 357.1839  75.8851 15.18787345 57935
TEVEL-4                 
1 51063U 22002CH  23031.27498499  .00015273  00000+0  73653-3 0  9996
2 51063  97.4549  99.6688 0008777 357.4838  75.4400 15.18762057 57934
TEVEL-2                 
1 51069U 22002CP  23031.25857619  .00015312  00000+0  73677-3 0  9993
2 51069  97.4537  99.6182 0008749 359.8587  70.3520 15.18839211 57936
YUZGU 7 (RS1S)          
1 53309U 98067TU  23026.78154543  .07817383  12266-4  25237-2 0  9999
2 53309  51.5369 287.2498 0215129 186.3126 284.9191 16.41937082 29633
RS29S (SXC3-2110 CYCLO*)
1 53373U 22096D   23030.99730000  .00022474  00000+0  78197-3 0  9999
2 53373  97.4267 296.5612 0001795  78.7237 293.7575 15.29709588 26656
RS32S (SXC3-212 MONITO*)
1 53374U 22096E   23030.94760112  .00021393  00000+0  74785-3 0  9990
2 53374  97.4257 296.5161 0001347  92.0344  41.9212 15.29567661 26640
RS34S (SXC3-218 KUZBAS*)
1 53375U 22096F   23031.30909759  .00018257  00000+0  65200-3 0  9991
2 53375  97.4268 296.8110 0001035  57.2307  89.6488 15.28901922 26696
RS23S (SXC3-21 UTMN)    
1 53376U 22096G   23031.22768983  .00019042  00000+0  67636-3 0  9993
2 53376  97.4269 296.7483 0001116  78.5712  23.0970 15.29071060 26685
RS28S (SXC3-214 MIET-A*)
1 53377U 22096H   23031.10168772  .00018366  00000+0  65610-3 0  9999
2 53377  97.4268 296.6160 0001054  66.6978  40.8795 15.28891512 26660
RS26S (KAI-1)           
1 53378U 22096J   23030.99014977  .00015579  00000+0  56491-3 0  9993
2 53378  97.4272 296.4656 0000918  80.7014  43.1106 15.28435749 26646
RS19S (SXC3-219 ISOI)   
1 53381U 22096M   23031.04914235  .00018372  00000+0  64545-3 0  9993
2 53381  97.4267 296.6900 0003846 156.4565 328.6165 15.29431059 26662
RS21S (CUBESX-HSE-2)    
1 53383U 22096P   23031.10559006  .00018830  00000+0  65930-3 0  9991
2 53383  97.4268 296.7637 0003814 155.7443 313.1864 15.29536266 26677
RS30S (SXC3-217 SIREN)  
1 53384U 22096Q   23031.12405580  .00015588  00000+0  55302-3 0  9990
2 53384  97.4268 296.7511 0004297 159.1673 340.8214 15.29145944 26673
RS20S (GEOSCAN-EDELVEIS)
1 53385U 22096R   23031.10283112  .00023723  00000+0  79767-3 0  9995
2 53385  97.4262 296.9122 0003992 154.1713 313.4777 15.30805249 26717
RS33S (SXC3-215 VIZARD) 
1 53386U 22096S   23031.01311597  .00027207  00000+0  88073-3 0  9996
2 53386  97.4264 296.9875 0005046 160.9769 209.7037 15.31998501 26703
CAS-5A (FO-118)         
1 54684U 22167C   23031.30899021  .00011553  00000+0  71518-3 0  9995
2 54684  97.5406 170.4071 0015450  87.9334   0.8775 15.09858084  7999
CAS-10                  
1 54816U 21035C   23031.00464369  .00142368  00000+0  99693-3 0  9998
2 54816  41.4755 270.1258 0011275 238.7122 121.2559 15.72913187  6766
